INTELSAT 10 (IS-10)     
1 26766U 01019A   25262.50704806 -.00000302  00000+0  00000+0 0  9999
2 26766   8.4239  61.9974 0003503 184.7588  75.6605  0.99079946 42898
INTELSAT 902 (IS-902)   
1 26900U 01039A   25259.43102468 -.00000300  00000+0  00000+0 0  9993
2 26900   5.4207  75.1205 0004141  97.6820 287.9077  1.00272465 87955
INTELSAT 904 (IS-904)   
1 27380U 02007A   25262.36159072 -.00000218  00000+0  00000+0 0  9999
2 27380   6.2386  72.4207 0002980 120.5261 268.2560  1.00269593 49057
DIRECTV 5 (TEMPO 1)     
1 27426U 02023A   25262.55927825 -.00000072  00000+0  00000+0 0  9996
2 27426   4.1818  78.6862 0003326 113.5891 257.6624  1.00271720 85414
INTELSAT 905 (IS-905)   
1 27438U 02027A   25262.55399156  .00000081  00000+0  00000+0 0  9992
2 27438   6.0690  73.0486 0002338 111.1915 236.7066  1.00272712 48644
GALAXY 3C (G-3C)        
1 27445U 02030A   25262.58597508 -.00000168  00000+0  00000+0 0  9995
2 27445   3.0424  81.3882 0002155  58.0246 335.4353  1.00272099 43783
INTELSAT 906 (IS-906)   
1 27513U 02041A   25262.59385840 -.00000001  00000+0  00000+0 0  9994
2 27513   5.1101  76.2511 0002878 132.1112  68.3358  1.00270524 84316
GALAXY 13 (HORIZONS-1)  
1 27954U 03044A   25262.55139155  .00000115  00000+0  00000+0 0  9994
2 27954   0.7131  87.7637 0002135  91.8378 227.6098  1.00273302 43858
INTELSAT 10-02          
1 28358U 04022A   25262.58085836 -.00000029  00000+0  00000+0 0  9994
2 28358   0.0232 251.6243 0000866 322.7699 352.4700  1.00271664 77840
XM-3 (RHYTHM)           
1 28626U 05008A   25262.56711390 -.00000217  00000+0  00000+0 0  9995
2 28626   0.0248 347.1630 0000143 249.8070 239.5946  1.00270251 39910
DIRECTV 8               
1 28659U 05019A   25262.55754491 -.00000017  00000+0  00000+0 0  9999
2 28659   0.0124 125.9579 0003108  67.7568 246.6560  1.00271878 74350
GALAXY 28 (G-28)        
1 28702U 05022A   25262.56711390 -.00000203  00000+0  00000+0 0  9991
2 28702   2.5970  82.3079 0001910  96.3733 295.4975  1.00271562 49272
GALAXY 16 (G-16)        
1 29236U 06023A   25262.57267159 -.00000145  00000+0  00000+0 0  9991
2 29236   0.0273 211.3004 0002641 332.3060 282.2819  1.00271605 70255
DIRECTV 9S              
1 29494U 06043A   25262.57267159 -.00000130  00000+0  00000+0 0  9993
2 29494   1.7178  84.2213 0002932  99.0468 280.4172  1.00271419 48670
GALAXY 17 (G-17)        
1 31307U 07016B   25262.56669723 -.00000223  00000+0  00000+0 0  9995
2 31307   2.2823  83.3394 0004714 143.5173 250.8857  1.00271524 67092
DIRECTV 10              
1 31862U 07032A   25262.33030933 -.00000122  00000+0  00000+0 0  9997
2 31862   0.0391 328.0191 0000651 285.3320 121.2527  1.00272113 42872
INTELSAT 11 (IS-11)     
1 32253U 07044B   25262.55650491  .00000058  00000+0  00000+0 0  9993
2 32253   2.8555  81.9970 0007915 122.0776 230.8241  0.99048482 65761
HORIZONS-2              
1 32388U 07063B   25262.56655829 -.00000270  00000+0  00000+0 0  9991
2 32388   1.8990  83.9840 0002263 137.4018 267.4912  1.00270086 65109
DIRECTV 11              
1 32729U 08013A   25262.57267159 -.00000144  00000+0  00000+0 0  9992
2 32729   0.0108 276.2151 0000119 309.0233 240.4640  1.00272472 42886
GALAXY 18 (G-18)        
1 32951U 08024A   25262.55676491  .00000007  00000+0  00000+0 0  9999
2 32951   0.0140 132.0152 0003109  57.2854 246.8277  1.00271835 43139
INTELSAT 25 (IS-25)     
1 33153U 08034A   25262.43213770 -.00000241  00000+0  00000+0 0  9990
2 33153   2.0054  83.6750 0005041 121.3156 277.6590  1.00274232 62988
GALAXY 19 (G-19)        
1 33376U 08045A   25262.57267159 -.00000157  00000+0  00000+0 0  9990
2 33376   0.0435 261.5097 0002782 284.8671 281.5184  1.00271573 62194
FM-5                    
1 35493U 09034A   25261.39767249 -.00000221  00000+0  00000+0 0  9997
2 35493   0.0389 266.8243 0000520 170.5721 337.1774  1.00274228 43912
INTELSAT 14 (IS-14)     
1 36097U 09064A   25262.39628148 -.00000292  00000+0  00000+0 0  9994
2 36097   0.0199 117.5259 0002487  72.8384 265.8516  1.00272339 57887
INTELSAT 15 (IS-15)     
1 36106U 09067A   25262.59141799 -.00000203  00000+0  00000+0 0  9994
2 36106   0.0217 213.6231 0002327 336.5031 106.6862  1.00272932 38513
DIRECTV 12              
1 36131U 09075A   25262.57267159 -.00000122  00000+0  00000+0 0  9998
2 36131   0.0128 354.1513 0000208 186.0574 281.9569  1.00271127 43840
INTELSAT 16 (IS-16)     
1 36397U 10006A   25262.56603829 -.00000263  00000+0  00000+0 0  9991
2 36397   0.0224 262.9779 0002169 288.9735 294.3433  1.00272617 56948
XM-5                    
1 37185U 10053A   25262.34419787 -.00000043  00000+0  00000+0 0  9999
2 37185   0.0587 270.1586 0000361 159.4007 297.6587  1.00276244 54763
INTELSAT 17 (IS-17)     
1 37238U 10065B   25262.61521039 -.00000020  00000+0  00000+0 0  9990
2 37238   0.0144 194.4606 0002500 350.7627 101.0212  1.00271951 50537
INTELSAT 28 (IS-28)     
1 37392U 11016A   25262.43586764 -.00000242  00000+0  00000+0 0  9990
2 37392   1.1017  86.1624 0004287 100.0663 297.5815  1.00271868 50577
INTELSAT 18 (IS-18)     
1 37834U 11056A   25262.54003044  .00000000  00000+0  00000+0 0  9993
2 37834   0.0264 160.8556 0001793  14.0670 198.1865  1.00273461 51095
INTELSAT 22 (IS-22)     
1 38098U 12011A   25262.59550508 -.00000076  00000+0  00000+0 0  9999
2 38098   0.0216 233.1376 0001976 318.1028  94.0063  1.00270296  4474
INTELSAT 19 (IS-19)     
1 38356U 12030A   25262.49392152  .00000000  00000+0  00000+0 0  9991
2 38356   0.0219 155.6462 0002951  33.4478 153.3675  1.00269724 47736
INTELSAT 20 (IS-20)     
1 38740U 12043A   25262.59472508 -.00000042  00000+0  00000+0 0  9994
2 38740   0.0094 178.9088 0001560 345.2143 117.2250  1.00270395 48032
INTELSAT 21 (IS-21)     
1 38749U 12045A   25262.49826465 -.00000303  00000+0  00000+0 0  9999
2 38749   0.0115 230.5893 0001935 317.3789 292.0623  1.00273011 47815
INTELSAT 23 (IS-23)     
1 38867U 12057A   25262.40169730 -.00000303  00000+0  00000+0 0  9999
2 38867   0.0345 248.5866 0001575   2.8875 198.7054  1.00271016 47231
FM-6                    
1 39360U 13058A   25262.55815159 -.00000035  00000+0  00000+0 0  9991
2 39360   0.0189 124.1232 0002341  62.8950 256.4642  1.00273207 43341
INTELSAT 30 (IS-30)     
1 40271U 14062A   25262.34824398  .00000000  00000+0  00000+0 0  9993
2 40271   0.0201 143.8297 0001635 265.4437 339.5347  1.00270779  4066
DIRECTV 14              
1 40333U 14078B   25262.57267159  .00000000  00000+0  00000+0 0  9990
2 40333   0.0220 170.5141 0000279  96.2262 198.9169  1.00268004 39335
DIRECTV 15              
1 40663U 15026A   25262.41801096 -.00000121  00000+0  00000+0 0  9992
2 40663   0.0358  95.1013 0000246 353.7057 317.3932  1.00274317 37742
SKY MEXICO-1            
1 40664U 15026B   25262.56543162 -.00000253  00000+0  00000+0 0  9992
2 40664   0.0252  97.1157 0002103  93.3346 293.0629  1.00272779 37742
INTELSAT 34 (IS-34)     
1 40874U 15039A   25262.40183619  .00000000  00000+0  00000+0 0  9998
2 40874   0.0223 176.8720 0001510 193.2924  77.5399  1.00268200 36907
INTELSAT 31 (IS-31)     
1 41581U 16035A   25261.99138995 -.00000170  00000+0  00000+0 0  9990
2 41581   0.0145 213.6978 0001808  14.9017  31.3772  1.00270114 33966
INTELSAT 36 (IS-36)     
1 41747U 16053A   25262.59472508  .00000000  00000+0  00000+0 0  9993
2 41747   0.0173 154.5534 0001474 185.2640 301.5074  1.00269353 33235
INTELSAT 32E (IS-32E)   
1 41945U 17007B   25262.39072360 -.00000288  00000+0  00000+0 0  9992
2 41945   0.0203 106.9393 0000411 252.4712  96.6084  1.00268945 31507
INTELSAT 35E (IS-35E)   
1 42818U 17041A   25262.44141939 -.00000256  00000+0  00000+0 0  9990
2 42818   0.0119 223.7529 0002723 351.2210 268.0428  1.00271956 30109
INTELSAT 37E (IS-37E)   
1 42950U 17059A   25262.43482437  .00000000  00000+0  00000+0 0  9992
2 42950   0.0258 166.3426 0002912  24.0837 306.6980  1.00269407 29353
AZERSPACE 2 (IS-38)     
1 43632U 18074A   25262.59013172  .00000000  00000+0  00000+0 0  9991
2 43632   0.0254 173.7366 0001365   7.9945  74.5731  1.00270550 25737
HORIZONS-3E             
1 43633U 18074B   25262.48864161 -.00000049  00000+0  00000+0 0  9996
2 43633   0.0184 247.3027 0001773  42.6297  53.6281  1.00271713 25629
AT&T T-16               
1 44333U 19034A   25262.34703065 -.00000134  00000+0  00000+0 0  9996
2 44333   0.0293  99.7455 0000356 289.4104 353.4060  1.00275927 22912
INTELSAT 39 (IS-39)     
1 44476U 19049B   25262.20754205  .00000015  00000+0  00000+0 0  9994
2 44476   0.0058 123.3280 0000433 196.9805 174.7082  1.00271040 22410
GALAXY 30 (G-30)        
1 46114U 20056C   25262.55641824  .00000000  00000+0  00000+0 0  9999
2 46114   0.0245 175.2548 0002214   8.3859 250.3680  1.00269800 18574
GALAXY 33 (G-33)        
1 54026U 22128A   25262.55477156  .00000000  00000+0  00000+0 0  9997
2 54026   0.0222 180.1381 0001750 356.7539 248.5320  1.00270098 11023
GALAXY 34 (G-34)        
1 54027U 22128B   25262.55555157  .00000000  00000+0  00000+0 0  9996
2 54027   0.0201 167.9504 0001433   8.4298 253.3888  1.00269394 11190
GALAXY 31 (G-31)        
1 54243U 22153A   25262.55719824 -.00000005  00000+0  00000+0 0  9993
2 54243   0.0117 198.2061 0001527  10.5200 229.5729  1.00271905  4419
GALAXY 32 (G-32)        
1 54244U 22153B   25262.27769700  .00000000  00000+0  00000+0 0  9995
2 54244   0.0222 147.9417 0000164 160.3753  59.0874  1.00269534 10426
GALAXY 35 (G-35)        
1 54741U 22170A   25262.56711390 -.00000180  00000+0  00000+0 0  9990
2 54741   0.0151 212.1317 0001953 329.8674 287.7839  1.00271608 10183
GALAXY 36 (G-36)        
1 54742U 22170B   25262.56711390 -.00000203  00000+0  00000+0 0  9997
2 54742   0.0139 143.6134 0001759 356.2872 333.9810  1.00272426 10062
GALAXY 37 (G-37)        
1 57493U 23112A   25262.55598491  .00000030  00000+0  00000+0 0  9991
2 57493   0.0193 121.7930 0002086  71.7281 238.3371  1.00271687  7824
